[{"OBJECT_NAME":"STARLINK-11478 [DTC]","OBJECT_ID":"2025-006D","EPOCH":"2025-10-17T04:35:27.636576","MEAN_MOTION":15.70795947,"ECCENTRICITY":0.0002164,"INCLINATION":42.9996,"RA_OF_ASC_NODE":284.8733,"ARG_OF_PERICENTER":289.9159,"MEAN_ANOMALY":70.1475,"EPHEMERIS_TYPE":0,"CLASSIFICATION_TYPE":"U","NORAD_CAT_ID":62557,"ELEMENT_SET_NO":999,"REV_AT_EPOCH":4403,"BSTAR":0.0012939,"MEAN_MOTION_DOT":0.00168681,"MEAN_MOTION_DDOT":0},{"OBJECT_NAME":"STARLINK-11358 [DTC]","OBJECT_ID":"2025-006E","EPOCH":"2025-10-16T20:50:00.422880","MEAN_MOTION":15.70956935,"ECCENTRICITY":0.000243,"INCLINATION":42.999,"RA_OF_ASC_NODE":286.7475,"ARG_OF_PERICENTER":293.1478,"MEAN_ANOMALY":66.9134,"EPHEMERIS_TYPE":0,"CLASSIFICATION_TYPE":"U","NORAD_CAT_ID":62558,"ELEMENT_SET_NO":999,"REV_AT_EPOCH":4398,"BSTAR":0.002048,"MEAN_MOTION_DOT":0.00272477,"MEAN_MOTION_DDOT":0},{"OBJECT_NAME":"STARLINK-11517 [DTC]","OBJECT_ID":"2025-006F","EPOCH":"2025-10-16T21:05:17.733408","MEAN_MOTION":15.70991786,"ECCENTRICITY":0.0001708,"INCLINATION":42.9994,"RA_OF_ASC_NODE":286.8319,"ARG_OF_PERICENTER":287.3282,"MEAN_ANOMALY":72.7398,"EPHEMERIS_TYPE":0,"CLASSIFICATION_TYPE":"U","NORAD_CAT_ID":62559,"ELEMENT_SET_NO":999,"REV_AT_EPOCH":4398,"BSTAR":0.002421,"MEAN_MOTION_DOT":0.00324706,"MEAN_MOTION_DDOT":0},{"OBJECT_NAME":"STARLINK-11519 [DTC]","OBJECT_ID":"2025-006G","EPOCH":"2025-10-17T03:43:25.233024","MEAN_MOTION":15.70883146,"ECCENTRICITY":8.15e-5,"INCLINATION":42.9982,"RA_OF_ASC_NODE":285.4759,"ARG_OF_PERICENTER":213.585,"MEAN_ANOMALY":146.4966,"EPHEMERIS_TYPE":0,"CLASSIFICATION_TYPE":"U","NORAD_CAT_ID":62560,"ELEMENT_SET_NO":999,"REV_AT_EPOCH":4402,"BSTAR":0.0023666,"MEAN_MOTION_DOT":0.0031562,"MEAN_MOTION_DDOT":0},{"OBJECT_NAME":"STARLINK-11451 [DTC]","OBJECT_ID":"2025-006H","EPOCH":"2025-10-16T06:50:39.983136","MEAN_MOTION":15.70894617,"ECCENTRICITY":9.96e-5,"INCLINATION":42.9983,"RA_OF_ASC_NODE":290.1099,"ARG_OF_PERICENTER":228.6559,"MEAN_ANOMALY":131.4223,"EPHEMERIS_TYPE":0,"CLASSIFICATION_TYPE":"U","NORAD_CAT_ID":62561,"ELEMENT_SET_NO":999,"REV_AT_EPOCH":4389,"BSTAR":0.001182,"MEAN_MOTION_DOT":0.00154425,"MEAN_MOTION_DDOT":0},{"OBJECT_NAME":"STARLINK-11530 [DTC]","OBJECT_ID":"2025-006J","EPOCH":"2025-10-16T21:35:52.409760","MEAN_MOTION":15.71238928,"ECCENTRICITY":0.0002488,"INCLINATION":42.9947,"RA_OF_ASC_NODE":286.9994,"ARG_OF_PERICENTER":184.267,"MEAN_ANOMALY":175.8177,"EPHEMERIS_TYPE":0,"CLASSIFICATION_TYPE":"U","NORAD_CAT_ID":62562,"ELEMENT_SET_NO":999,"REV_AT_EPOCH":4398,"BSTAR":0.0024048,"MEAN_MOTION_DOT":0.00325951,"MEAN_MOTION_DDOT":0},{"OBJECT_NAME":"STARLINK-11536 [DTC]","OBJECT_ID":"2025-006K","EPOCH":"2025-10-16T20:42:21.962016","MEAN_MOTION":15.71051268,"ECCENTRICITY":0.0002902,"INCLINATION":42.9966,"RA_OF_ASC_NODE":286.7014,"ARG_OF_PERICENTER":319.8941,"MEAN_ANOMALY":40.1712,"EPHEMERIS_TYPE":0,"CLASSIFICATION_TYPE":"U","NORAD_CAT_ID":62563,"ELEMENT_SET_NO":999,"REV_AT_EPOCH":4398,"BSTAR":0.0024153,"MEAN_MOTION_DOT":0.00324763,"MEAN_MOTION_DDOT":0},{"OBJECT_NAME":"STARLINK-11540 [DTC]","OBJECT_ID":"2025-006L","EPOCH":"2025-10-17T03:19:10.303680","MEAN_MOTION":15.70878182,"ECCENTRICITY":0.000124,"INCLINATION":42.9992,"RA_OF_ASC_NODE":285.3395,"ARG_OF_PERICENTER":228.8573,"MEAN_ANOMALY":131.2188,"EPHEMERIS_TYPE":0,"CLASSIFICATION_TYPE":"U","NORAD_CAT_ID":62564,"ELEMENT_SET_NO":999,"REV_AT_EPOCH":4402,"BSTAR":0.0034795,"MEAN_MOTION_DOT":0.0047317,"MEAN_MOTION_DDOT":0},{"OBJECT_NAME":"STARLINK-11523 [DTC]","OBJECT_ID":"2025-006M","EPOCH":"2025-10-17T03:26:48.642720","MEAN_MOTION":15.70918038,"ECCENTRICITY":8.07e-5,"INCLINATION":42.9966,"RA_OF_ASC_NODE":285.3834,"ARG_OF_PERICENTER":182.2066,"MEAN_ANOMALY":177.8798,"EPHEMERIS_TYPE":0,"CLASSIFICATION_TYPE":"U","NORAD_CAT_ID":62565,"ELEMENT_SET_NO":999,"REV_AT_EPOCH":4402,"BSTAR":0.0020067,"MEAN_MOTION_DOT":0.00266333,"MEAN_MOTION_DDOT":0},{"OBJECT_NAME":"STARLINK-11525 [DTC]","OBJECT_ID":"2025-006N","EPOCH":"2025-10-17T03:49:45.261696","MEAN_MOTION":15.70869141,"ECCENTRICITY":0.0001107,"INCLINATION":42.9993,"RA_OF_ASC_NODE":285.5096,"ARG_OF_PERICENTER":243.2688,"MEAN_ANOMALY":116.8066,"EPHEMERIS_TYPE":0,"CLASSIFICATION_TYPE":"U","NORAD_CAT_ID":62566,"ELEMENT_SET_NO":999,"REV_AT_EPOCH":4402,"BSTAR":0.00041629,"MEAN_MOTION_DOT":0.00053375,"MEAN_MOTION_DDOT":0},{"OBJECT_NAME":"STARLINK-32752","OBJECT_ID":"2025-006P","EPOCH":"2025-10-15T16:12:44.799264","MEAN_MOTION":15.27607893,"ECCENTRICITY":0.00013249,"INCLINATION":43.0048,"RA_OF_ASC_NODE":31.6252,"ARG_OF_PERICENTER":270.5971,"MEAN_ANOMALY":89.4729,"EPHEMERIS_TYPE":0,"CLASSIFICATION_TYPE":"U","NORAD_CAT_ID":62567,"ELEMENT_SET_NO":999,"REV_AT_EPOCH":4268,"BSTAR":0.0017630678,"MEAN_MOTION_DOT":0.00048615,"MEAN_MOTION_DDOT":0},{"OBJECT_NAME":"STARLINK-32760","OBJECT_ID":"2025-006Q","EPOCH":"2025-10-16T00:10:54.892992","MEAN_MOTION":15.27572729,"ECCENTRICITY":0.00021715,"INCLINATION":43.003,"RA_OF_ASC_NODE":29.8112,"ARG_OF_PERICENTER":275.1151,"MEAN_ANOMALY":84.9453,"EPHEMERIS_TYPE":0,"CLASSIFICATION_TYPE":"U","NORAD_CAT_ID":62568,"ELEMENT_SET_NO":999,"REV_AT_EPOCH":4273,"BSTAR":0.0011823769,"MEAN_MOTION_DOT":0.00032411,"MEAN_MOTION_DDOT":0},{"OBJECT_NAME":"STARLINK-32715","OBJECT_ID":"2025-006R","EPOCH":"2025-10-16T12:57:07.444800","MEAN_MOTION":15.27631881,"ECCENTRICITY":9.3e-5,"INCLINATION":43.0036,"RA_OF_ASC_NODE":26.9276,"ARG_OF_PERICENTER":262.4273,"MEAN_ANOMALY":97.6473,"EPHEMERIS_TYPE":0,"CLASSIFICATION_TYPE":"U","NORAD_CAT_ID":62569,"ELEMENT_SET_NO":999,"REV_AT_EPOCH":4281,"BSTAR":0.00097678,"MEAN_MOTION_DOT":0.00026757,"MEAN_MOTION_DDOT":0},{"OBJECT_NAME":"STARLINK-32764","OBJECT_ID":"2025-006S","EPOCH":"2025-10-16T13:08:13.401312","MEAN_MOTION":15.27608286,"ECCENTRICITY":0.0001534,"INCLINATION":43.0013,"RA_OF_ASC_NODE":26.983,"ARG_OF_PERICENTER":282.3003,"MEAN_ANOMALY":77.7677,"EPHEMERIS_TYPE":0,"CLASSIFICATION_TYPE":"U","NORAD_CAT_ID":62570,"ELEMENT_SET_NO":999,"REV_AT_EPOCH":4281,"BSTAR":0.0013195,"MEAN_MOTION_DOT":0.00036258,"MEAN_MOTION_DDOT":0},{"OBJECT_NAME":"STARLINK-32773","OBJECT_ID":"2025-006T","EPOCH":"2025-10-15T23:37:36.606144","MEAN_MOTION":15.27616583,"ECCENTRICITY":0.00015302,"INCLINATION":43.0062,"RA_OF_ASC_NODE":29.6426,"ARG_OF_PERICENTER":281.052,"MEAN_ANOMALY":79.016,"EPHEMERIS_TYPE":0,"CLASSIFICATION_TYPE":"U","NORAD_CAT_ID":62571,"ELEMENT_SET_NO":999,"REV_AT_EPOCH":4273,"BSTAR":0.001101497,"MEAN_MOTION_DOT":0.00030207,"MEAN_MOTION_DDOT":0},{"OBJECT_NAME":"STARLINK-32750","OBJECT_ID":"2025-006U","EPOCH":"2025-10-16T13:19:06.540384","MEAN_MOTION":15.27620181,"ECCENTRICITY":0.0001739,"INCLINATION":43.0008,"RA_OF_ASC_NODE":26.1764,"ARG_OF_PERICENTER":116.2671,"MEAN_ANOMALY":243.8359,"EPHEMERIS_TYPE":0,"CLASSIFICATION_TYPE":"U","NORAD_CAT_ID":62572,"ELEMENT_SET_NO":999,"REV_AT_EPOCH":4282,"BSTAR":0.0011274,"MEAN_MOTION_DOT":0.00030931,"MEAN_MOTION_DDOT":0},{"OBJECT_NAME":"STARLINK-32771","OBJECT_ID":"2025-006V","EPOCH":"2025-10-16T13:33:53.863200","MEAN_MOTION":15.27635154,"ECCENTRICITY":8.54e-5,"INCLINATION":43.0012,"RA_OF_ASC_NODE":26.2562,"ARG_OF_PERICENTER":268.8251,"MEAN_ANOMALY":91.2503,"EPHEMERIS_TYPE":0,"CLASSIFICATION_TYPE":"U","NORAD_CAT_ID":62573,"ELEMENT_SET_NO":999,"REV_AT_EPOCH":4282,"BSTAR":0.0011118,"MEAN_MOTION_DOT":0.0003051,"MEAN_MOTION_DDOT":0},{"OBJECT_NAME":"STARLINK-32766","OBJECT_ID":"2025-006W","EPOCH":"2025-10-16T13:59:49.121088","MEAN_MOTION":15.27627194,"ECCENTRICITY":4.39e-5,"INCLINATION":43.0064,"RA_OF_ASC_NODE":26.3898,"ARG_OF_PERICENTER":312.0706,"MEAN_ANOMALY":48.0108,"EPHEMERIS_TYPE":0,"CLASSIFICATION_TYPE":"U","NORAD_CAT_ID":62574,"ELEMENT_SET_NO":999,"REV_AT_EPOCH":4282,"BSTAR":0.0015702,"MEAN_MOTION_DOT":0.00043261,"MEAN_MOTION_DDOT":0},{"OBJECT_NAME":"STARLINK-11547 [DTC]","OBJECT_ID":"2025-008A","EPOCH":"2025-10-17T00:04:03.685152","MEAN_MOTION":15.70894305,"ECCENTRICITY":9.53e-5,"INCLINATION":42.9987,"RA_OF_ASC_NODE":272.477,"ARG_OF_PERICENTER":275.6104,"MEAN_ANOMALY":84.4655,"EPHEMERIS_TYPE":0,"CLASSIFICATION_TYPE":"U","NORAD_CAT_ID":62587,"ELEMENT_SET_NO":999,"REV_AT_EPOCH":4351,"BSTAR":0.0030706,"MEAN_MOTION_DOT":0.00414835,"MEAN_MOTION_DDOT":0},{"OBJECT_NAME":"STARLINK-11185 [DTC]","OBJECT_ID":"2025-008B","EPOCH":"2025-10-16T15:40:24.129984","MEAN_MOTION":15.71018314,"ECCENTRICITY":0.0001193,"INCLINATION":42.9978,"RA_OF_ASC_NODE":274.1371,"ARG_OF_PERICENTER":2.6133,"MEAN_ANOMALY":357.4741,"EPHEMERIS_TYPE":0,"CLASSIFICATION_TYPE":"U","NORAD_CAT_ID":62588,"ELEMENT_SET_NO":999,"REV_AT_EPOCH":4346,"BSTAR":0.0021476,"MEAN_MOTION_DOT":0.00286985,"MEAN_MOTION_DDOT":0},{"OBJECT_NAME":"STARLINK-11513 [DTC]","OBJECT_ID":"2025-008C","EPOCH":"2025-10-16T16:10:59.113056","MEAN_MOTION":15.70965681,"ECCENTRICITY":8.55e-5,"INCLINATION":42.9972,"RA_OF_ASC_NODE":274.3072,"ARG_OF_PERICENTER":12.5409,"MEAN_ANOMALY":347.5479,"EPHEMERIS_TYPE":0,"CLASSIFICATION_TYPE":"U","NORAD_CAT_ID":62589,"ELEMENT_SET_NO":999,"REV_AT_EPOCH":4346,"BSTAR":0.0018859,"MEAN_MOTION_DOT":0.00250288,"MEAN_MOTION_DDOT":0},{"OBJECT_NAME":"STARLINK-11397 [DTC]","OBJECT_ID":"2025-008D","EPOCH":"2025-10-16T21:23:41.824320","MEAN_MOTION":15.71067624,"ECCENTRICITY":0.0002449,"INCLINATION":42.9996,"RA_OF_ASC_NODE":272.4741,"ARG_OF_PERICENTER":299.7663,"MEAN_ANOMALY":60.2961,"EPHEMERIS_TYPE":0,"CLASSIFICATION_TYPE":"U","NORAD_CAT_ID":62590,"ELEMENT_SET_NO":999,"REV_AT_EPOCH":4461,"BSTAR":0.0032627,"MEAN_MOTION_DOT":0.00445673,"MEAN_MOTION_DDOT":0},{"OBJECT_NAME":"STARLINK-11420 [DTC]","OBJECT_ID":"2025-008E","EPOCH":"2025-10-16T20:53:18.209760","MEAN_MOTION":15.71079659,"ECCENTRICITY":0.0003801,"INCLINATION":42.9977,"RA_OF_ASC_NODE":273.1979,"ARG_OF_PERICENTER":318.4342,"MEAN_ANOMALY":41.6237,"EPHEMERIS_TYPE":0,"CLASSIFICATION_TYPE":"U","NORAD_CAT_ID":62591,"ELEMENT_SET_NO":999,"REV_AT_EPOCH":4467,"BSTAR":0.0026041,"MEAN_MOTION_DOT":0.00351778,"MEAN_MOTION_DDOT":0}]
